[
    {
        "Altitude(m)": 624790.823527356,
        "Argument of Periapsis(deg)": 0.0,
        "Eccentricity": 0.0,
        "Inclination(deg)": 60.0,
        "Latitude(deg)": -59.147201888439234,
        "Longitude(deg)": -138.9655258708584,
        "Mean Anomaly(deg)": 278.1818,
        "RAAN(deg)": 35.0,
        "Satellite Name": "Test1 171",
        "Satellite Number": 171,
        "Semi-Major Axis(m)": 6980739.136638005,
        "Time(s)": 0
    },
    {
        "Altitude(m)": 624737.4791829173,
        "Argument of Periapsis(deg)": 0.00010418945913296404,
        "Eccentricity": 0.0,
        "Inclination(deg)": 60.0,
        "Latitude(deg)": -58.994658562054504,
        "Longitude(deg)": -137.84602022024634,
        "Mean Anomaly(deg)": 278.8019061454618,
        "RAAN(deg)": 34.99957995086025,
        "Satellite Name": "Test1 171",
        "Satellite Number": 171,
        "Semi-Major Axis(m)": 6980739.136638005,
        "Time(s)": 10
    }
]